[Satellite]
VERSION=1.1
NAME=INTELSAT 904 (IS-904)
NICKNAME=INTELSAT 904 (IS-904)
TLE1=1 27380U 02007A   15053.56917848  .00000024  00000-0  10000-3 0  9991
TLE2=2 27380   0.0353  45.8596 0002827 283.7552  87.4130  1.00273776 47660
